[
    {
        "Altitude(m)": 604234.5931136535,
        "Argument of Periapsis(deg)": 0.0,
        "Eccentricity": 0.0,
        "Inclination(deg)": 60.0,
        "Latitude(deg)": 14.117143859082713,
        "Longitude(deg)": -43.272687546813074,
        "Mean Anomaly(deg)": -196.36359999999996,
        "RAAN(deg)": 245.0,
        "Satellite Name": "Test1 1088",
        "Satellite Number": 1088,
        "Semi-Major Axis(m)": 6980739.136638005,
        "Time(s)": 0
    },
    {
        "Altitude(m)": 604223.4222968492,
        "Argument of Periapsis(deg)": 0.00010418945913296404,
        "Eccentricity": 0.0,
        "Inclination(deg)": 60.0,
        "Latitude(deg)": 13.5822805237303,
        "Longitude(deg)": -42.98577789457477,
        "Mean Anomaly(deg)": -195.74349385453812,
        "RAAN(deg)": 244.99957995086027,
        "Satellite Name": "Test1 1088",
        "Satellite Number": 1088,
        "Semi-Major Axis(m)": 6980739.136638005,
        "Time(s)": 10
    }
]